OBJECT_NAME,OBJECT_ID,EPOCH,MEAN_MOTION,ECCENTRICITY,INCLINATION,RA_OF_ASC_NODE,ARG_OF_PERICENTER,MEAN_ANOMALY,EPHEMERIS_TYPE,CLASSIFICATION_TYPE,NORAD_CAT_ID,ELEMENT_SET_NO,REV_AT_EPOCH,BSTAR,MEAN_MOTION_DOT,MEAN_MOTION_DDOT
STARLINK-35043,2025-194C,2026-07-04T20:45:46.626336,15.04846847,.00024317,97.4298,39.3663,80.5410,279.6092,0,U,65436,999,4730,.50466208E-3,.7076E-4,0
STARLINK-35080,2025-194D,2026-07-05T03:29:15.114912,15.05671705,.00015923,97.2855,38.5271,107.7142,252.4259,0,U,65437,999,4732,.11090524E-2,.1599E-3,0
STARLINK-35068,2025-194E,2026-07-04T20:38:30.274368,15.05658738,.00022691,97.2850,38.1510,89.0181,271.1307,0,U,65438,999,4727,.38209066E-3,.5462E-4,0
STARLINK-35045,2025-194F,2026-07-05T03:41:11.421888,15.05668335,.00019893,97.2853,38.5166,87.8390,272.3066,0,U,65439,999,4732,.40338497E-3,.5771E-4,0
STARLINK-35050,2025-194G,2026-07-04T20:50:30.394176,15.05653327,.00019072,97.2858,38.2939,89.4831,270.6615,0,U,65440,999,4728,.44071771E-3,.6309E-4,0
STARLINK-35065,2025-194H,2026-07-05T01:09:39.606912,15.05673656,.00022664,97.2852,38.3549,88.6314,271.5173,0,U,65441,999,4730,.60715248E-3,.872E-4,0
STARLINK-34679,2025-194J,2026-07-05T00:13:48.479232,15.05707903,.00005754,97.2858,38.4055,20.8124,339.3127,0,U,65442,999,4730,.13367826E-2,.19313E-3,0
STARLINK-34678,2025-194K,2026-07-05T01:01:41.037312,15.05678147,.00021271,97.2853,38.3621,89.0650,271.0821,0,U,65443,999,4730,.81931693E-3,.11794E-3,0
STARLINK-35049,2025-194L,2026-07-05T00:41:45.499776,15.05668961,.00022526,97.2847,38.3787,88.8567,271.2919,0,U,65444,999,4730,.48823498E-3,.6999E-4,0
STARLINK-35029,2025-194M,2026-07-04T19:46:40.782432,15.05673996,.00025288,97.2856,38.1988,88.3634,271.7884,0,U,65445,999,4727,.59462948E-3,.8539E-4,0
STARLINK-34991,2025-194N,2026-07-05T03:33:13.194432,15.05672496,.00022692,97.2847,38.5231,70.9380,289.2093,0,U,65446,999,4732,.50829067E-3,.7289E-4,0
STARLINK-34920,2025-194P,2026-07-05T00:05:52.245024,15.05673276,.00019739,97.2857,38.4160,87.4428,272.7026,0,U,65447,999,4730,.44266402E-3,.634E-4,0
STARLINK-35030,2025-194Q,2026-07-05T00:49:44.404608,15.05652235,.00021628,97.2848,38.3708,86.9303,273.2172,0,U,65448,999,4730,.20792138E-3,.2945E-4,0
STARLINK-35009,2025-194R,2026-07-04T20:42:30.691008,15.05666758,.00019302,97.2857,38.3024,89.7948,270.3501,0,U,65449,999,4728,.3788407E-3,.5416E-4,0
STARLINK-34970,2025-194S,2026-07-04T20:34:31.428480,15.05667064,.00026023,97.2857,38.1551,87.4768,272.6758,0,U,65450,999,4727,.40251808E-3,.5759E-4,0
STARLINK-35039,2025-194T,2026-07-05T00:37:45.999840,15.05677493,.00021897,97.2847,38.3836,86.1754,273.9724,0,U,65451,999,4730,.82292737E-3,.11846E-3,0
STARLINK-35084,2025-194U,2026-07-04T20:10:36.004800,15.05677479,.0003108,97.2854,38.1795,90.2916,269.8668,0,U,65452,999,4727,.66274968E-3,.9526E-4,0
STARLINK-34988,2025-194V,2026-07-04T20:43:47.438400,15.04872288,.00021522,97.4280,39.6600,85.8241,274.3232,0,U,65453,999,4732,.65278672E-3,.9179E-4,0
STARLINK-35059,2025-194W,2026-07-04T20:48:54.175680,15.04850762,.00019806,97.4295,39.1841,89.1384,271.0069,0,U,65454,999,4729,.46887831E-3,.657E-4,0
STARLINK-34728,2025-194X,2026-07-05T01:13:37.384032,15.05675329,.00019923,97.2844,38.3521,92.5823,267.5633,0,U,65455,999,4730,.10379541E-3,.1443E-4,0
STARLINK-35005,2025-194Y,2026-07-04T20:46:29.701920,15.05674124,.00020271,97.2862,38.2991,89.3462,270.7998,0,U,65456,999,4728,.58276647E-3,.8367E-4,0
STARLINK-35076,2025-194Z,2026-07-04T20:18:34.436160,15.05671619,.00027117,97.2851,38.1711,91.2516,268.9022,0,U,65457,999,4727,.50530713E-3,.7246E-4,0
STARLINK-34784,2025-195A,2026-07-04T17:14:38.944320,15.31774550,.00024729,53.1583,73.7307,101.5836,258.5443,0,U,65458,999,4792,.20662456E-2,.64462E-3,0
STARLINK-34867,2025-195B,2026-07-04T09:46:49.537920,15.34428351,.00007594,53.1592,74.6260,105.1624,254.9463,0,U,65459,999,4788,.10688756E-2,.35943E-3,0
STARLINK-34850,2025-195C,2026-07-05T01:18:40.769856,15.34486934,.00011039,53.1574,71.5566,234.8314,125.2585,0,U,65460,999,4798,.19425834E-2,.66019E-3,0
STARLINK-35159,2025-195D,2026-07-04T22:41:24.075456,15.34505958,.00013209,53.1591,72.3014,102.4234,257.6916,0,U,65461,999,4796,.18433562E-2,.62637E-3,0
STARLINK-35180,2025-195E,2026-07-04T09:49:50.289312,15.34443876,.00006719,53.1585,74.6458,62.5935,297.5136,0,U,65462,999,4788,.12217886E-2,.41188E-3,0
STARLINK-35111,2025-195F,2026-07-04T02:01:56.709696,15.31742319,.00015181,53.1589,76.8740,73.2242,286.8926,0,U,65463,999,4782,.1221505E-2,.37782E-3,0
STARLINK-35107,2025-195G,2026-07-03T23:34:13.339776,15.31733714,.00010084,53.1575,76.9493,74.1341,285.9772,0,U,65464,999,4781,.12752254E-2,.39458E-3,0
STARLINK-35169,2025-195H,2026-07-04T22:59:33.888768,15.34466770,.00006034,53.1591,72.3785,106.4747,253.6322,0,U,65465,999,4796,.1260296E-2,.42537E-3,0
