STARLINK-35043          
1 65436U 25194C   26185.86512299  .00007076  00000+0  50466-3 0  9992
2 65436  97.4298  39.3663 0002431  80.5410 279.6092 15.04846847 47309
STARLINK-35080          
1 65437U 25194D   26186.14531383  .00015990  00000+0  11091-2 0  9994
2 65437  97.2855  38.5271 0001592 107.7142 252.4259 15.05671705 47320
STARLINK-35068          
1 65438U 25194E   26185.86007262  .00005462  00000+0  38209-3 0  9991
2 65438  97.2850  38.1510 0002269  89.0181 271.1307 15.05658738 47272
STARLINK-35045          
1 65439U 25194F   26186.15360442  .00005771  00000+0  40338-3 0  9996
2 65439  97.2853  38.5166 0001989  87.8390 272.3066 15.05668335 47328
STARLINK-35050          
1 65440U 25194G   26185.86840734  .00006309  00000+0  44072-3 0  9999
2 65440  97.2858  38.2939 0001907  89.4831 270.6615 15.05653327 47289
STARLINK-35065          
1 65441U 25194H   26186.04837508  .00008720  00000+0  60715-3 0  9997
2 65441  97.2852  38.3549 0002266  88.6314 271.5173 15.05673656 47307
STARLINK-34679          
1 65442U 25194J   26186.00958888  .00019313  00000+0  13368-2 0  9990
2 65442  97.2858  38.4055 0000575  20.8124 339.3127 15.05707903 47300
STARLINK-34678          
1 65443U 25194K   26186.04283608  .00011794  00000+0  81932-3 0  9994
2 65443  97.2853  38.3621 0002127  89.0650 271.0821 15.05678147 47300
STARLINK-35049          
1 65444U 25194L   26186.02899884  .00006999  00000+0  48823-3 0  9995
2 65444  97.2847  38.3787 0002252  88.8567 271.2919 15.05668961 47303
STARLINK-35029          
1 65445U 25194M   26185.82408313  .00008539  00000+0  59463-3 0  9990
2 65445  97.2856  38.1988 0002528  88.3634 271.7884 15.05673996 47277
STARLINK-34991          
1 65446U 25194N   26186.14806938  .00007289  00000+0  50829-3 0  9990
2 65446  97.2847  38.5231 0002269  70.9380 289.2093 15.05672496 47326
STARLINK-34920          
1 65447U 25194P   26186.00407691  .00006340  00000+0  44266-3 0  9994
2 65447  97.2857  38.4160 0001973  87.4428 272.7026 15.05673276 47303
STARLINK-35030          
1 65448U 25194Q   26186.03454172  .00002945  00000+0  20792-3 0  9999
2 65448  97.2848  38.3708 0002162  86.9303 273.2172 15.05652235 47308
STARLINK-35009          
1 65449U 25194R   26185.86285522  .00005416  00000+0  37884-3 0  9997
2 65449  97.2857  38.3024 0001930  89.7948 270.3501 15.05666758 47284
STARLINK-34970          
1 65450U 25194S   26185.85730820  .00005759  00000+0  40252-3 0  9997
2 65450  97.2857  38.1551 0002602  87.4768 272.6758 15.05667064 47270
STARLINK-35039          
1 65451U 25194T   26186.02622685  .00011846  00000+0  82293-3 0  9992
2 65451  97.2847  38.3836 0002189  86.1754 273.9724 15.05677493 47307
STARLINK-35084          
1 65452U 25194U   26185.84069450  .00009526  00000+0  66275-3 0  9991
2 65452  97.2854  38.1795 0003108  90.2916 269.8668 15.05677479 47277
STARLINK-34988          
1 65453U 25194V   26185.86374350  .00009179  00000+0  65279-3 0  9999
2 65453  97.4280  39.6600 0002152  85.8241 274.3232 15.04872288 47321
STARLINK-35059          
1 65454U 25194W   26185.86729370  .00006570  00000+0  46888-3 0  9993
2 65454  97.4295  39.1841 0001980  89.1384 271.0069 15.04850762 47294
STARLINK-34728          
1 65455U 25194X   26186.05112713  .00001443  00000+0  10380-3 0  9995
2 65455  97.2844  38.3521 0001992  92.5823 267.5633 15.05675329 47302
STARLINK-35005          
1 65456U 25194Y   26185.86562155  .00008367  00000+0  58277-3 0  9992
2 65456  97.2862  38.2991 0002027  89.3462 270.7998 15.05674124 47285
STARLINK-35076          
1 65457U 25194Z   26185.84623190  .00007246  00000+0  50531-3 0  9998
2 65457  97.2851  38.1711 0002711  91.2516 268.9022 15.05671619 47277
STARLINK-34784          
1 65458U 25195A   26185.71850630  .00064462  00000+0  20662-2 0  9991
2 65458  53.1583  73.7307 0002472 101.5836 258.5443 15.31774550 47922
STARLINK-34867          
1 65459U 25195B   26185.40751780  .00035943  00000+0  10689-2 0  9994
2 65459  53.1592  74.6260 0000759 105.1624 254.9463 15.34428351 47887
STARLINK-34850          
1 65460U 25195C   26186.05463854  .00066019  00000+0  19426-2 0  9996
2 65460  53.1574  71.5566 0001103 234.8314 125.2585 15.34486934 47981
STARLINK-35159          
1 65461U 25195D   26185.94541754  .00062637  00000+0  18434-2 0  9990
2 65461  53.1591  72.3014 0001320 102.4234 257.6916 15.34505958 47964
STARLINK-35180          
1 65462U 25195E   26185.40960983  .00041188  00000+0  12218-2 0  9993
2 65462  53.1585  74.6458 0000671  62.5935 297.5136 15.34443876 47885
STARLINK-35111          
1 65463U 25195F   26185.08468414  .00037782  00000+0  12215-2 0  9992
2 65463  53.1589  76.8740 0001518  73.2242 286.8926 15.31742319 47822
STARLINK-35107          
1 65464U 25195G   26184.98209884  .00039458  00000+0  12752-2 0  9993
2 65464  53.1575  76.9493 0001008  74.1341 285.9772 15.31733714 47815
STARLINK-35169          
1 65465U 25195H   26185.95803112  .00042537  00000+0  12603-2 0  9993
2 65465  53.1591  72.3785 0000603 106.4747 253.6322 15.34466770 47964
